NORAD_CAT_ID,OBJECT_NAME,OBJECT_TYPE,EPOCH,MEAN_MOTION,ECCENTRICITY,INCLINATION,RA_OF_ASC_NODE,ARG_OF_PERICENTER,MEAN_ANOMALY,BSTAR,MEAN_MOTION_DOT,MEAN_MOTION_DDOT,TLE_LINE0,TLE_LINE1,TLE_LINE2,SEMIMAJOR_AXIS,PERIOD,APOGEE,PERIGEE,DECAYED
51788.0,STARLINK-3641,PAYLOAD,2024-06-13 17:28:36,15.08845989,0.0001018,53.2169,315.0869,84.4906,275.6202,0.00030632,4.591e-05,0.0,0 STARLINK-3641,1 51788U 22017W   24165.72820271  .00004591  00000-0  30632-3 0  9994,2 51788  53.2169 315.0869 0001018  84.4906 275.6202 15.08845989128215,6917.862,95.437,540.431,539.023,0.0
51788.0,STARLINK-3641,PAYLOAD,2024-06-14 14:08:37,15.08840599,0.0001258,53.2175,311.2193,92.5758,267.5379,0.00013048,1.789e-05,0.0,0 STARLINK-3641,1 51788U 22017W   24166.58932515  .00001789  00000-0  13048-3 0  9992,2 51788  53.2175 311.2193 0001258  92.5758 267.5379 15.08840599128342,6917.879,95.438,540.614,538.873,0.0
51788.0,STARLINK-3641,PAYLOAD,2024-06-14 18:54:46,15.08847552,0.0001067,53.2172,310.3286,94.4161,265.6953,0.00017694,2.53e-05,0.0,0 STARLINK-3641,1 51788U 22017W   24166.78804257  .00002530  00000-0  17694-3 0  9991,2 51788  53.2172 310.3286 0001067  94.4161 265.6953 15.08847552128375,6917.857,95.437,540.46,538.984,0.0
51788.0,STARLINK-3641,PAYLOAD,2024-06-15 13:59:24,15.0884492,8.76e-05,53.2158,306.7586,89.6732,270.4361,0.00014063,1.951e-05,0.0,0 STARLINK-3641,1 51788U 22017W   24167.58292339  .00001951  00000-0  14063-3 0  9995,2 51788  53.2158 306.7586 0000876  89.6732 270.4361 15.08844920128494,6917.865,95.437,540.336,539.124,0.0
51788.0,STARLINK-3641,PAYLOAD,2024-06-15 18:45:33,15.08852857,0.0001134,53.2167,305.8661,77.9866,282.1253,0.00019223,2.774e-05,0.0,0 STARLINK-3641,1 51788U 22017W   24167.78163845  .00002774  00000-0  19223-3 0  9993,2 51788  53.2167 305.8661 0001134  77.9866 282.1253 15.08852857128526,6917.841,95.437,540.491,538.922,0.0
51788.0,STARLINK-3641,PAYLOAD,2024-06-16 13:50:11,15.08843035,0.0001434,53.2155,302.298,96.4029,263.7127,0.00015022,2.104e-05,0.0,0 STARLINK-3641,1 51788U 22017W   24168.57652443  .00002104  00000-0  15022-3 0  9998,2 51788  53.2155 302.2980 0001434  96.4029 263.7127 15.08843035128644,6917.871,95.437,540.728,538.744,0.0
51788.0,STARLINK-3641,PAYLOAD,2024-06-16 18:36:20,15.08845569,0.0001366,53.2173,301.4049,103.2092,256.9052,8.3054e-05,1.034e-05,0.0,0 STARLINK-3641,1 51788U 22017W   24168.77524214  .00001034  00000-0  83054-4 0  9996,2 51788  53.2173 301.4049 0001366 103.2092 256.9052 15.08845569128670,6917.863,95.437,540.673,538.783,0.0
51788.0,STARLINK-3641,PAYLOAD,2024-06-17 18:27:08,15.08839065,0.0001394,53.2175,296.9455,100.2097,259.9052,8.8134e-05,1.115e-05,0.0,0 STARLINK-3641,1 51788U 22017W   24169.76884629  .00001115  00000-0  88134-4 0  9999,2 51788  53.2175 296.9455 0001394 100.2097 259.9052 15.08839065128828,6917.883,95.438,540.713,538.784,0.0
51788.0,STARLINK-3641,PAYLOAD,2024-06-18 13:31:45,15.08838954,0.000113,53.2177,293.3765,103.729,256.3828,0.0001049,1.382e-05,0.0,0 STARLINK-3641,1 51788U 22017W   24170.56372562  .00001382  00000-0  10490-3 0  9992,2 51788  53.2177 293.3765 0001130 103.7290 256.3828 15.08838954128947,6917.884,95.438,540.53,538.967,0.0
51788.0,STARLINK-3641,PAYLOAD,2024-06-18 15:07:09,15.08838628,8.55e-05,53.2178,293.085,79.0159,281.0929,0.00015202,2.132e-05,0.0,0 STARLINK-3641,1 51788U 22017W   24170.62996563  .00002132  00000-0  15202-3 0  9992,2 51788  53.2178 293.0850 0000855  79.0159 281.0929 15.08838628128958,6917.885,95.438,540.341,539.158,0.0
51788.0,STARLINK-3641,PAYLOAD,2024-06-19 13:22:34,15.08828026,0.0001405,53.2181,288.9195,100.6742,259.4408,-9.1886e-06,-4.34e-06,0.0,0 STARLINK-3641,1 51788U 22017W   24171.55734060 -.00000434  00000-0 -91886-5 0  9996,2 51788  53.2181 288.9195 0001405 100.6742 259.4408 15.08828026129096,6917.917,95.438,540.754,538.81,0.0
51788.0,STARLINK-3641,PAYLOAD,2024-06-19 14:57:57,15.0883058,0.0001423,53.2183,288.6238,94.9846,265.1308,1.1127e-05,-1.11e-06,0.0,0 STARLINK-3641,1 51788U 22017W   24171.62357913 -.00000111  00000-0  11127-4 0  9992,2 51788  53.2183 288.6238 0001423  94.9846 265.1308 15.08830580129106,6917.909,95.438,540.759,538.79,0.0
51788.0,STARLINK-3641,PAYLOAD,2024-06-20 13:13:21,15.08828232,0.0001151,53.2174,284.4592,77.9694,282.1427,-1.3167e-05,-4.97e-06,0.0,0 STARLINK-3641,1 51788U 22017W   24172.55094850 -.00000497  00000-0 -13167-4 0  9997,2 51788  53.2174 284.4592 0001151  77.9694 282.1427 15.08828232129240,6917.916,95.438,540.578,538.985,0.0
51788.0,STARLINK-3641,PAYLOAD,2024-06-20 17:59:32,15.0882029,0.0001145,53.2184,283.5676,79.5802,280.5319,-9.1019e-05,-1.735e-05,0.0,0 STARLINK-3641,1 51788U 22017W   24172.74967745 -.00001735  00000-0 -91019-4 0  9998,2 51788  53.2184 283.5676 0001145  79.5802 280.5319 15.08820290129277,6917.941,95.439,540.598,539.014,0.0
51788.0,STARLINK-3641,PAYLOAD,2024-06-21 00:21:04,15.08828309,8.84e-05,53.2183,282.3826,98.6918,261.4174,2.5105e-05,1.12e-06,0.0,0 STARLINK-3641,1 51788U 22017W   24173.01463034  .00000112  00000-0  25105-4 0  9990,2 51788  53.2183 282.3826 0000884  98.6918 261.4174 15.08828309129310,6917.916,95.438,540.393,539.17,0.0
51788.0,STARLINK-3641,PAYLOAD,2024-06-21 13:04:07,15.08847594,9.52e-05,53.216,279.9977,76.6895,283.4204,0.00025908,3.839e-05,0.0,0 STARLINK-3641,1 51788U 22017W   24173.54453596  .00003839  00000-0  25908-3 0  9999,2 51788  53.2160 279.9977 0000952  76.6895 283.4204 15.08847594129393,6917.857,95.437,540.381,539.064,0.0
51788.0,STARLINK-3641,PAYLOAD,2024-06-21 14:39:30,15.08850805,0.0001002,53.2164,279.7005,75.5771,284.5332,0.00028631,4.273e-05,0.0,0 STARLINK-3641,1 51788U 22017W   24173.61077384  .00004273  00000-0  28631-3 0  9993,2 51788  53.2164 279.7005 0001002  75.5771 284.5332 15.08850805129400,6917.847,95.437,540.406,539.019,0.0
51788.0,STARLINK-3641,PAYLOAD,2024-06-22 12:54:55,15.08836344,0.0001218,53.2183,275.5377,70.0398,290.0726,0.00028028,4.175e-05,0.0,0 STARLINK-3641,1 51788U 22017W   24174.53814508  .00004175  00000-0  28028-3 0  9993,2 51788  53.2183 275.5377 0001218  70.0398 290.0726 15.08836344129547,6917.892,95.438,540.599,538.914,0.0
51788.0,STARLINK-3641,PAYLOAD,2024-06-22 14:30:18,15.08837915,0.0001276,53.2186,275.2406,71.6594,288.4537,0.0002871,4.284e-05,0.0,0 STARLINK-3641,1 51788U 22017W   24174.60438419  .00004284  00000-0  28710-3 0  9993,2 51788  53.2186 275.2406 0001276  71.6594 288.4537 15.08837915129556,6917.887,95.438,540.634,538.869,0.0
51788.0,STARLINK-3641,PAYLOAD,2024-06-23 12:45:43,15.08842699,0.0001194,53.2183,271.0785,71.7608,288.3514,-8.6225e-05,-1.66e-05,0.0,0 STARLINK-3641,1 51788U 22017W   24175.53175012 -.00001660  00000-0 -86225-4 0  9996,2 51788  53.2183 271.0785 0001194  71.7608 288.3514 15.08842699129697,6917.872,95.437,540.563,538.911,0.0
51788.0,STARLINK-3641,PAYLOAD,2024-06-23 15:56:29,15.08846115,0.0001172,53.2181,270.483,74.6856,285.4265,-5.8473e-05,-1.218e-05,0.0,0 STARLINK-3641,1 51788U 22017W   24175.66422684 -.00001218  00000-0 -58473-4 0  9993,2 51788  53.2181 270.4830 0001172  74.6856 285.4265 15.08846115129713,6917.862,95.437,540.537,538.916,0.0
51788.0,STARLINK-3641,PAYLOAD,2024-06-24 12:36:28,15.08867233,0.0001112,53.2177,266.618,88.7713,271.3406,0.00021678,3.166e-05,0.0,0 STARLINK-3641,1 51788U 22017W   24176.52533079  .00003166  00000-0  21678-3 0  9998,2 51788  53.2177 266.6180 0001112  88.7713 271.3406 15.08867233129844,6917.797,95.436,540.431,538.893,0.0
51788.0,STARLINK-3641,PAYLOAD,2024-06-25 12:27:15,15.08856102,0.0001073,53.2161,262.1567,80.195,279.9163,0.00026306,3.903e-05,0.0,0 STARLINK-3641,1 51788U 22017W   24177.51893453  .00003903  00000-0  26306-3 0  9995,2 51788  53.2161 262.1567 0001073  80.1950 279.9163 15.08856102129995,6917.831,95.437,540.438,538.954,0.0
51788.0,STARLINK-3641,PAYLOAD,2024-06-26 10:42:39,15.08853003,0.0001199,53.2152,257.9976,79.4619,280.6508,0.00015712,2.214e-05,0.0,0 STARLINK-3641,1 51788U 22017W   24178.44628965  .00002214  00000-0  15712-3 0  9995,2 51788  53.2152 257.9976 0001199  79.4619 280.6508 15.08853003130130,6917.841,95.437,540.535,538.876,0.0
51788.0,STARLINK-3641,PAYLOAD,2024-06-27 12:08:49,15.08842592,0.0001147,53.2148,253.2369,102.4091,257.7029,4.4562e-05,4.21e-06,0.0,0 STARLINK-3641,1 51788U 22017W   24179.50612972  .00000421  00000-0  44562-4 0  9998,2 51788  53.2148 253.2369 0001147 102.4091 257.7029 15.08842592130295,6917.872,95.437,540.531,538.944,0.0
51788.0,STARLINK-3641,PAYLOAD,2024-06-28 11:59:36,15.08846028,0.000147,53.2158,248.7732,86.996,273.12,1.8576e-05,8e-08,0.0,0 STARLINK-3641,1 51788U 22017W   24180.49972896  .00000008  00000-0  18576-4 0  9999,2 51788  53.2158 248.7732 0001470  86.9960 273.1200 15.08846028130447,6917.862,95.437,540.744,538.71,0.0
51788.0,STARLINK-3641,PAYLOAD,2024-06-29 13:25:48,15.08830196,0.0001583,53.2148,244.0169,59.1414,300.9734,-4.1856e-06,-3.55e-06,0.0,0 STARLINK-3641,1 51788U 22017W   24181.55958560 -.00000355  00000-0 -41856-5 0  9994,2 51788  53.2148 244.0169 0001583  59.1414 300.9734 15.08830196130608,6917.91,95.438,540.87,538.68,0.0
51788.0,STARLINK-3641,PAYLOAD,2024-06-29 21:22:43,15.08834866,0.000116,53.2157,242.5308,82.1258,277.9866,4.8047e-05,4.77e-06,0.0,0 STARLINK-3641,1 51788U 22017W   24181.89078535  .00000477  00000-0  48047-4 0  9997,2 51788  53.2157 242.5308 0001160  82.1258 277.9866 15.08834866130651,6917.896,95.438,540.564,538.959,0.0
51788.0,STARLINK-3641,PAYLOAD,2024-06-30 10:05:48,15.08840067,0.0001139,53.2139,240.1517,78.9111,281.2009,0.00013099,1.797e-05,0.0,0 STARLINK-3641,1 51788U 22017W   24182.42070084  .00001797  00000-0  13099-3 0  9992,2 51788  53.2139 240.1517 0001139  78.9111 281.2009 15.08840067130730,6917.88,95.438,540.533,538.957,0.0
51788.0,STARLINK-3641,PAYLOAD,2024-06-30 21:13:30,15.08844062,0.0001213,53.2144,238.0706,72.5976,287.5149,0.00016284,2.305e-05,0.0,0 STARLINK-3641,1 51788U 22017W   24182.88437807  .00002305  00000-0  16284-3 0  9997,2 51788  53.2144 238.0706 0001213  72.5976 287.5149 15.08844062130805,6917.868,95.437,540.572,538.894,0.0
